#aP2002  6 22  0  0  0.00000000     192 ORBIT IGS00 HLM  IGS
## 1171 518400.00000000   900.00000000 52447 0.0000000000000
+   23     1  3  4  5  6  7  8  9 10 11 14 15 18 20 22 23 25
+         26 27 28 29 30 31  0  0  0  0  0  0  0  0  0  0  0
+          0  0  0  0  0  0  0  0  0  0  0  0  0  0  0  0  0
+          0  0  0  0  0  0  0  0  0  0  0  0  0  0  0  0  0
+          0  0  0  0  0  0  0  0  0  0  0  0  0  0  0  0  0
++         6  6  6  5  6  6  6  5  6  6  6  6  7  6  5  7  8
++         6  7  6  7  6  5  0  0  0  0  0  0  0  0  0  0  0
++         0  0  0  0  0  0  0  0  0  0  0  0  0  0  0  0  0
++         0  0  0  0  0  0  0  0  0  0  0  0  0  0  0  0  0
++         0  0  0  0  0  0  0  0  0  0  0  0  0  0  0  0  0
%c cc cc ccc ccc cccc cccc cccc cccc ccccc ccccc ccccc ccccc
%c cc cc ccc ccc cccc cccc cccc cccc ccccc ccccc ccccc ccccc
%f  0.0000000  0.000000000  0.00000000000  0.000000000000000
%f  0.0000000  0.000000000  0.00000000000  0.000000000000000
%i    0    0    0    0      0      0      0      0         0
%i    0    0    0    0      0      0      0      0         0
/* ULTRA ORBIT COMBINATION FROM WEIGHTED AVERAGE OF:        
/* cou emu esu gfu siu usu                                  
/* REFERENCED TO cou CLOCK AND TO WEIGHTED MEAN POLE:       
/* CLK ANT Z-OFFSET (M): II/IIA 1.023; IIR 0.000            
*  2002  6 22  4 30  0.00000000
P  1  -1290.303621 -24421.008424  10489.336402    235.370467
P  3  12286.537802 -20299.369327  11742.759605     39.041064
P  4 -26023.445271   4732.279215  -3633.999731    217.459269
P  5   9122.713645  20782.301066 -13981.309471     18.887481
P  6   8517.239562  18680.115586  16925.700275     -4.312382
P  7 -15667.455601    562.934928 -21049.524635    626.379097
P  8 -24272.997118  -1147.864671  10755.173372    631.177514
P  9  -1242.226625  16444.200479 -21062.072265    -48.600096
P 10  -8463.542394  12241.675786  21959.775241      6.944112
P 11    819.251637 -17011.228922 -20362.649190     14.750874
P 14  15614.924872  -2832.916129 -21270.361661    -65.099091
P 15  21857.259919   4779.090671  14153.846024     28.589846
P 18  19974.721633  17348.365875  -3094.555968    -61.345505
P 20  -9449.002689 -21093.193090 -13122.177490   -169.357868
P 22  14605.021714  -7806.704734  20492.667310    369.843204
P 23   5885.862334  21071.982047  15648.013233      4.456115
P 25  24867.342957  -9076.751348   -745.833609     28.403005
P 26  -7517.490129  24990.519493   2382.877699   -267.006993
P 27 -16351.283257  -9071.576248  19420.802120    -17.622974
P 28 -22075.761576 -10186.137277 -10842.524025    -86.029015
P 29  -8458.149507  24781.216044   4926.181949     37.983647
P 30  16792.523110  19973.259791  -5361.229973    679.289998
P 31   3669.104190 -26086.514369  -1716.111784    315.879602
*  2002  6 22  4 45  0.00000000
P  1   -869.866478 -25383.683276   7878.875857    235.371311
P  3  12357.011909 -18785.734562  13978.381695     39.044980
P  4 -25535.971550   4362.894897  -6415.293169    217.472367
P  5   7632.447523  19924.176511 -15975.430202     18.887599
P  6   7974.786685  20422.065288  15037.003533     -4.315773
P  7 -15311.713092  -1918.175137 -21246.873827    626.362691
P  8 -23006.017261  -1757.117053  13125.725544    631.164188
P  9  -3441.632648  17156.711748 -20180.172581    -48.602679
P 10 -10364.059087  10591.398484  22023.788384      6.944531
P 11   2985.407618 -17790.312315 -19474.301532     14.751785
P 14  15191.599130   -402.754682 -21749.003821    -65.096510
P 15  20183.088084   5380.311718  16223.028450     28.594843
P 18  19947.043464  17650.087053   -250.129232    -61.343622
P 20  -8102.561139 -20179.721816 -15293.821644   -169.360007
P 22  16447.397919  -6315.138121  19654.310076    369.878001
P 23   4512.788914  19891.245157  17581.219963      4.455058
P 25  24737.034928  -8665.823130  -3550.684726     28.404800
P 26  -7688.996350  24485.043658   5253.990720   -267.028779
P 27 -14332.736887  -9967.274546  20512.393369    -17.619530
P 28 -22763.833110 -11079.634082  -8295.898269    -86.029823
P 29  -8552.366761  24066.793970   7673.116385     38.010881
P 30  16037.564270  19719.480459  -8035.300989    679.290246
P 31   4000.052744 -26039.831339   1120.723980    315.890481
*  2002  6 22  5  0  0.00000000
P  1   -546.536232 -26068.618171   5133.316247    235.371312
P  3  12479.993710 -17038.860043  15971.152692     39.048323
P  4 -24782.164523   3856.598901  -9087.740864    217.485641
P  5   5929.199895  19021.972192 -17697.512913     18.887373
P  6   7545.515433  21964.833725  12890.272976     -4.316431
P  7 -15075.894406  -4412.247129 -21065.966998    626.346738
P  8 -21531.365935  -2523.769061  15269.981644    631.150747
P  9  -5499.702108  17932.202703 -18956.839807    -48.603719
P 10 -12339.525248   9058.645410  21708.204900      6.944105
P 11   5007.533170 -18614.189244 -18250.290399     14.752323
P 14  14893.986287   2080.008861 -21852.245152    -65.094018
P 15  18333.172690   6142.395165  18009.454057     28.599528
P 18  19690.410920  17744.848508   2598.566268    -61.341648
P 20  -6527.221868 -19198.376811 -17203.018655   -169.362302
P 22  18257.643826  -4979.907785  18471.357233    369.912804
P 23   2926.081614  18661.720174  19224.099370      4.454239
P 25  24345.290817  -8106.688139  -6293.632377     28.404740
P 26  -7842.503930  23666.538708   8030.860373   -267.050095
P 27 -12266.483726 -11009.652037  21265.530585    -17.617534
P 28 -23264.153385 -11753.523335  -5607.775440    -86.030745
P 29  -8650.999188  23058.891737  10289.613591     38.038161
P 30  15035.952259  19329.884106 -10572.594061    679.290956
P 31   4303.919745 -25688.356290   3937.818802    315.901414
*  2002  6 22  5 15  0.00000000
P  1   -286.614911 -26455.547412   2299.563095    235.373150
P  3  12682.532359 -15090.404763  17686.555834     39.051671
P  4 -23790.770025   3186.605219 -11605.793597    217.498842
P  5   4031.346619  18113.818789 -19118.086584     18.888773
P  6   7206.183807  23274.208728  10521.769129     -4.318988
P  7 -14962.202412  -6869.816299 -20510.806121    626.330583
P  8 -19888.626762  -3462.444372  17150.145190    631.136797
P  9  -7383.799370  18738.691909 -17411.239233    -48.604815
P 10 -14347.529017   7670.643868  21019.195824      6.945275
P 11   6855.613551 -19451.257477 -16711.690452     14.752744
P 14  14729.469628   4566.118568 -21578.074205    -65.091587
P 15  16352.736182   7075.153257  19481.119408     28.604109
P 18  19182.800448  17662.900902   5402.902445    -61.339831
P 20  -4737.205517 -18191.209844 -18817.236216   -169.364481
P 22  19992.290765  -3812.117017  16966.360363    369.947883
P 23   1141.687581  17426.294558  20550.351066      4.455213
P 25  23716.991181  -7373.482608  -8926.504327     28.406835
P 26  -8016.291327  22546.213431  10663.644867   -267.071830
P 27 -10195.723272 -12188.792121  21666.613141    -17.615030
P 28 -23543.552885 -12226.489658  -2824.207857    -86.031454
P 29  -8790.637860  21774.314612  12731.629378     38.064988
P 30  13785.584675  18842.611016 -12930.249805    679.291499
P 31   4616.360838 -25034.182162   6685.420526    315.912298
*  2002  6 22  5 30  0.00000000
P  1    -53.495686 -26532.621343   -573.770930    235.375405
P  3  12986.127068 -12977.873672  19094.963310     39.055269
P  4 -22596.613495   2332.401441 -13926.362439    217.512119
P  5   1964.587831  17234.987196 -20212.734501     18.891149
P  6   6928.336410  24322.259750   7971.769716     -4.319387
P  7 -14964.887706  -9242.393575 -19592.212712    626.314294
P  8 -18121.174978  -4579.986984  18732.787789    631.123066
P  9  -9067.648744  19539.723670 -15568.165469    -48.606219
P 10 -16342.298861   6446.853519  19969.314050      6.946445
P 11   8506.282767 -20266.242052 -14885.009995     14.753577
P 14  14697.213086   7005.796705 -20931.019282    -65.089195
P 15  14289.717303   8179.972565  20611.450700     28.607999
P 18  18409.639232  17439.120435   8114.970769    -61.337775
P 20  -2754.832652 -17198.156093 -20109.026639   -169.366976
P 22  21608.345807  -2814.749711  15167.271316    369.982771
P 23   -816.746535  16225.005527  21538.769128      4.455521
P 25  22883.310547  -6446.436550 -11402.775096     28.406064
P 26  -8246.380098  21144.594393  13105.203207   -267.093827
P 27  -8162.028484 -13487.269694  21707.565278    -17.613694
P 28 -23574.514284 -12523.767522      7.338668    -86.032327
P 29  -9004.593166  20237.763697  14958.234651     38.092029
P 30  12292.470423  18296.689031 -15068.569577    679.291790
P 31   4972.058951 -24088.312561   9314.758462    315.923286
*  2002  6 22  5 45  0.00000000
P  1    190.730888 -26296.883990  -3437.191893    235.375773
P  3  13405.764991 -10743.310902  20172.152812     39.058253
P  4 -21239.304572   1280.746213 -16009.543263    217.525501
P  5   -238.821557  16416.536539 -20962.511559     18.891844
P  6   6679.560933  25088.354854   5283.910756     -4.320610
P  7 -15070.567386 -11484.196406 -18327.549800    626.298170
P  8 -16274.590521  -5874.957325  19989.496813    631.109343
P  9 -10532.204469  20295.740451 -13457.740373    -48.607483
P 10 -18276.342432   5398.394823  18577.231551      6.947425
P 11   9943.521747 -21021.574101 -12801.733253     14.754234
P 14  14788.215644   9350.476014 -19922.083862    -65.086874
P 15  12193.012005   9449.550632  21379.847928     28.611089
P 18  17364.513852  17111.542225  10688.383797    -61.335738
P 20   -609.855319 -16255.498854 -21056.475842   -169.369540
P 22  23064.858331  -1982.832674  13106.822386    370.017728
P 23  -2918.582148  15093.626248  22173.503231      4.457355
P 25  21880.487081  -5312.908392 -13678.450726     28.408365
P 26  -8564.873700  19490.783193  15312.038615   -267.115553
P 27  -6203.950431 -14880.618458  21386.046806    -17.612178
P 28 -23336.267983 -12675.974996   2838.771972    -86.033160
P 29  -9321.490650  18480.975606  16932.241481     38.118889
P 30  10570.654276  17730.466765 -16951.639765    679.292070
P 31   5403.119065 -22870.328369  11778.988056    315.934245
EOF
